BEIDOU-3 M28            
1 58654U 23207A   26164.00359830 -.00000057  00000+0  00000+0 0  9990
2 58654  55.7492  62.4443 0003374 346.0621  13.9544  1.86229633 16760
BEIDOU-3 M26            
1 58655U 23207B   26161.11630189 -.00000052  00000+0  00000+0 0  9994
2 58655  55.7488  62.5282 0003349 318.7202  41.2779  1.86229681 16690
GSAT0225 (GALILEO 29)   
1 59598U 24079A   26160.48196544  .00000021  00000+0  00000+0 0  9995
2 59598  55.1155 101.2960 0001734 292.0981 244.7042  1.70474016 13181
GSAT0227 (GALILEO 30)   
1 59600U 24079C   26159.20410498  .00000025  00000+0  00000+0 0  9998
2 59600  55.1096 101.3297 0001920  44.5115 315.4782  1.70474042 13219
GSAT0232 (GALILEO 32)   
1 61182U 24167A   26164.15785588  .00000062  00000+0  00000+0 0  9990
2 61182  55.1859 221.4246 0006161 225.9624 149.8375  1.70474201 10811
GSAT0226 (GALILEO 31)   
1 61183U 24167B   26162.86255495  .00000058  00000+0  00000+0 0  9991
2 61183  55.1853 221.4675 0002850 223.7122 168.4672  1.70474203 10765
BEIDOU-3 M25            
1 61186U 24168B   26163.83690193 -.00000069  00000+0  00000+0 0  9994
2 61186  54.4778 302.3939 0003000 301.8949 199.4569  1.86229830 11706
BEIDOU-3 M27            
1 61187U 24168C   26163.68788537 -.00000069  00000+0  00000+0 0  9998
2 61187  54.4733 302.3821 0001607  50.3873 126.0836  1.86229911  9172
NAVSTAR 83 (USA 440)    
1 62339U 24242A   26161.86496509 -.00000065  00000+0  00000+0 0  9990
2 62339  54.8505 334.4380 0017308   3.9284 359.9607  2.00571298 11131
QZS-6 (MICHIBIKI-6)     
1 62876U 25023A   26164.06693378 -.00000220  00000+0  00000+0 0  9995
2 62876   0.0434  65.0559 0001734  24.6652 286.2865  1.00271827  4900
COSMOS 2584 [GLONASS-K2]
1 63130U 25042A   26159.22437978 -.00000015  00000+0  00000+0 0  9996
2 63130  65.0792  73.1067 0005828 228.4476 131.5246  2.13103875  9858
NAVSTAR 84 (USA 545)    
1 64202U 25116A   26163.38956388 -.00000065  00000+0  00000+0 0  9997
2 64202  55.2312  31.3239 0008563 338.8161 228.7168  2.00576015  7778
COSMOS 2596 [GLONASS-K1]
1 65590U 25206B   26161.38985729 -.00000039  00000+0  00000+0 0  9998
2 65590  64.6376 315.2225 0011087 312.7926  24.8898  2.13100656  5767
GSAT0233 (GALILEO 33)   
1 67160U 25302A   26161.18955800  .00000019  00000+0  00000+0 0  9992
2 67160  54.3297 102.3310 0001084 234.5697 307.3496  1.70474067  3002
GSAT0234 (GALILEO 34)   
1 67162U 25302C   26162.65313341  .00000008  00000+0  00000+0 0  9993
2 67162  54.3333 102.2882 0003065 306.8400 233.4168  1.70474004  3088
NAVSTAR 85 (USA 581)    
1 67588U 26017A   26163.21167557 -.00000024  00000+0  00000+0 0  9997
2 67588  55.0853  88.9550 0022243 258.0245 101.7113  2.00571153431518
NAVSTAR 86 (USA 585)    
1 68791U 26087A   26158.43909353  .00000057  00000+0  00000+0 0  9992
2 68791  54.9638 208.1735 0020931 107.2972 251.8874  2.00569573   638
